NORAD_CAT_ID,OBJECT_NAME,OBJECT_TYPE,EPOCH,MEAN_MOTION,ECCENTRICITY,INCLINATION,RA_OF_ASC_NODE,ARG_OF_PERICENTER,MEAN_ANOMALY,BSTAR,MEAN_MOTION_DOT,MEAN_MOTION_DDOT,TLE_LINE0,TLE_LINE1,TLE_LINE2,SEMIMAJOR_AXIS,PERIOD,APOGEE,PERIGEE,DECAYED
52626.0,STARLINK-3990,PAYLOAD,2023-06-10 12:45:47,15.08843213,0.0001134,53.217,92.4656,87.1373,272.9749,-2.8751e-06,-3.34e-06,0.0,0 STARLINK-3990,1 52626U 22052AE  23161.53180261 -.00000334  00000-0 -28751-5 0  9991,2 52626  53.2170  92.4656 0001134  87.1373 272.9749 15.08843213 59549,6917.871,95.437,540.52,538.951,0.0
52626.0,STARLINK-3990,PAYLOAD,2023-06-10 17:31:57,15.08836239,0.0001259,53.2171,91.5731,93.9782,266.1354,3.3034e-05,2.38e-06,0.0,0 STARLINK-3990,1 52626U 22052AE  23161.73052672  .00000238  00000-0  33034-4 0  9997,2 52626  53.2171  91.5731 0001259  93.9782 266.1354 15.08836239 59953,6917.892,95.438,540.628,538.886,0.0
52626.0,STARLINK-3990,PAYLOAD,2023-06-10 20:42:43,15.08837013,0.0001162,53.2176,90.9785,93.2186,266.8939,3.1094e-05,2.07e-06,0.0,0 STARLINK-3990,1 52626U 22052AE  23161.86300655  .00000207  00000-0  31094-4 0  9998,2 52626  53.2176  90.9785 0001162  93.2186 266.8939 15.08837013 59591,6917.89,95.438,540.558,538.951,0.0
52626.0,STARLINK-3990,PAYLOAD,2023-06-11 01:28:52,15.08843146,0.0001164,53.2177,90.0861,87.1132,272.9993,4.1852e-05,3.78e-06,0.0,0 STARLINK-3990,1 52626U 22052AE  23162.06172275  .00000378  00000-0  41852-4 0  9998,2 52626  53.2177  90.0861 0001164  87.1132 272.9993 15.08843146 60003,6917.871,95.437,540.541,538.931,0.0
52626.0,STARLINK-3990,PAYLOAD,2023-06-11 12:36:35,15.08830594,0.000123,53.2177,88.006,88.9755,271.1378,0.00026013,3.853e-05,0.0,0 STARLINK-3990,1 52626U 22052AE  23162.52540514  .00003853  00000-0  26013-3 0  9996,2 52626  53.2177  88.0060 0001230  88.9755 271.1378 15.08830594 59699,6917.909,95.438,540.625,538.923,0.0
52626.0,STARLINK-3990,PAYLOAD,2023-06-11 18:58:07,15.08838227,0.0001294,53.2177,86.8177,88.5667,271.5473,0.00012815,1.752e-05,0.0,0 STARLINK-3990,1 52626U 22052AE  23162.79036311  .00001752  00000-0  12815-3 0  9991,2 52626  53.2177  86.8177 0001294  88.5667 271.5473 15.08838227 59738,6917.886,95.438,540.646,538.856,0.0
52626.0,STARLINK-3990,PAYLOAD,2023-06-12 01:19:39,15.08846105,0.0001087,53.2176,85.628,90.1102,270.0014,0.0001331,1.831e-05,0.0,0 STARLINK-3990,1 52626U 22052AE  23163.05531675  .00001831  00000-0  13310-3 0  9993,2 52626  53.2176  85.6280 0001087  90.1102 270.0014 15.08846105 60159,6917.862,95.437,540.479,538.975,0.0
52626.0,STARLINK-3990,PAYLOAD,2023-06-12 12:27:21,15.08839915,0.0001272,53.2174,83.5464,87.9242,272.1896,3.2561e-05,2.3e-06,0.0,0 STARLINK-3990,1 52626U 22052AE  23163.51900315  .00000230  00000-0  32561-4 0  9997,2 52626  53.2174  83.5464 0001272  87.9242 272.1896 15.08839915 59849,6917.881,95.438,540.626,538.866,0.0
52626.0,STARLINK-3990,PAYLOAD,2023-06-13 04:21:13,15.0883848,0.0001244,53.2172,80.5727,95.4447,264.6687,3.4769e-05,2.66e-06,0.0,0 STARLINK-3990,1 52626U 22052AE  23164.18140326  .00000266  00000-0  34769-4 0  9990,2 52626  53.2172  80.5727 0001244  95.4447 264.6687 15.08838480 59947,6917.885,95.438,540.611,538.889,0.0
52626.0,STARLINK-3990,PAYLOAD,2023-06-14 01:01:14,15.08837132,9.83e-05,53.2173,76.7085,86.5933,273.5172,-3.3233e-05,-8.17e-06,0.0,0 STARLINK-3990,1 52626U 22052AE  23165.04252676 -.00000817  00000-0 -33233-4 0  9997,2 52626  53.2173  76.7085 0000983  86.5933 273.5172 15.08837132 60451,6917.889,95.438,540.434,539.074,0.0
52626.0,STARLINK-3990,PAYLOAD,2023-06-14 04:12:00,15.08841841,0.0001088,53.2173,76.1129,88.7284,271.3833,-8.0032e-06,-4.15e-06,0.0,0 STARLINK-3990,1 52626U 22052AE  23165.17500328 -.00000415  00000-0 -80032-5 0  9995,2 52626  53.2173  76.1129 0001088  88.7284 271.3833 15.08841841 60096,6917.875,95.437,540.492,538.987,0.0
52626.0,STARLINK-3990,PAYLOAD,2023-06-14 20:05:52,15.08830276,0.0001021,53.2182,73.1389,90.0352,270.0758,-5.0334e-06,-3.68e-06,0.0,0 STARLINK-3990,1 52626U 22052AE  23165.83741261 -.00000368  00000-0 -50334-5 0  9990,2 52626  53.2182  73.1389 0001021  90.0352 270.0758 15.08830276 60193,6917.91,95.438,540.481,539.069,0.0
52626.0,STARLINK-3990,PAYLOAD,2023-06-15 00:52:01,15.08835094,9.43e-05,53.2179,72.2475,85.3386,274.7714,5.6327e-05,6.09e-06,0.0,0 STARLINK-3990,1 52626U 22052AE  23166.03612858  .00000609  00000-0  56327-4 0  9995,2 52626  53.2179  72.2475 0000943  85.3386 274.7714 15.08835094 60221,6917.895,95.438,540.413,539.108,0.0
52626.0,STARLINK-3990,PAYLOAD,2023-06-16 02:18:11,15.08843059,9.25e-05,53.2181,67.49,88.3881,271.7217,7.0954e-05,8.42e-06,0.0,0 STARLINK-3990,1 52626U 22052AE  23167.09596606  .00000842  00000-0  70954-4 0  9995,2 52626  53.2181  67.4900 0000925  88.3881 271.7217 15.08843059 60760,6917.871,95.437,540.376,539.096,0.0
52626.0,STARLINK-3990,PAYLOAD,2023-06-16 10:15:06,15.08847364,9.56e-05,53.2185,66.0032,84.4494,275.6607,0.00010103,1.321e-05,0.0,0 STARLINK-3990,1 52626U 22052AE  23167.42716185  .00001321  00000-0  10103-3 0  9990,2 52626  53.2185  66.0032 0000956  84.4494 275.6607 15.08847364 60439,6917.858,95.437,540.384,539.062,0.0
52626.0,STARLINK-3990,PAYLOAD,2023-06-16 18:12:02,15.08839673,0.0001009,53.2185,64.5164,86.4706,273.6402,0.0001045,1.376e-05,0.0,0 STARLINK-3990,1 52626U 22052AE  23167.75836631  .00001376  00000-0  10450-3 0  9990,2 52626  53.2185  64.5164 0001009  86.4706 273.6402 15.08839673 60486,6917.881,95.438,540.444,539.048,0.0
52626.0,STARLINK-3990,PAYLOAD,2023-06-17 10:05:54,15.08831208,9.02e-05,53.2187,61.543,94.5013,265.6082,-5.9669e-06,-3.83e-06,0.0,0 STARLINK-3990,1 52626U 22052AE  23168.42077345 -.00000383  00000-0 -59669-5 0  9990,2 52626  53.2187  61.5430 0000902  94.5013 265.6082 15.08831208 60967,6917.907,95.438,540.396,539.148,0.0
52626.0,STARLINK-3990,PAYLOAD,2023-06-17 16:27:27,15.08833117,0.0001575,53.2173,60.3536,96.6908,263.4264,-6.9137e-05,-1.388e-05,0.0,0 STARLINK-3990,1 52626U 22052AE  23168.68573797 -.00001388  00000-0 -69137-4 0  9996,2 52626  53.2173  60.3536 0001575  96.6908 263.4264 15.08833117 60621,6917.901,95.438,540.856,538.677,0.0
52626.0,STARLINK-3990,PAYLOAD,2023-06-18 01:59:47,15.08823701,0.0001184,53.2182,58.57,94.8431,265.2697,-0.00013953,-2.507e-05,0.0,0 STARLINK-3990,1 52626U 22052AE  23169.08318825 -.00002507  00000-0 -13953-3 0  9998,2 52626  53.2182  58.5700 0001184  94.8431 265.2697 15.08823701 61067,6917.93,95.439,540.614,538.976,0.0
52626.0,STARLINK-3990,PAYLOAD,2023-06-18 09:56:42,15.08837656,0.0001039,53.2195,57.0829,96.101,264.0101,-3.9909e-05,-9.23e-06,0.0,0 STARLINK-3990,1 52626U 22052AE  23169.41437738 -.00000923  00000-0 -39909-4 0  9990,2 52626  53.2195  57.0829 0001039  96.1010 264.0101 15.08837656 60738,6917.888,95.438,540.471,539.034,0.0
52626.0,STARLINK-3990,PAYLOAD,2023-06-18 19:29:00,15.08843895,0.0001034,53.2187,55.2979,94.8634,265.2476,5.9274e-05,6.56e-06,0.0,0 STARLINK-3990,1 52626U 22052AE  23169.81181069  .00000656  00000-0  59274-4 0  9995,2 52626  53.2187  55.2979 0001034  94.8634 265.2476 15.08843895 60793,6917.868,95.437,540.449,539.018,0.0
52626.0,STARLINK-3990,PAYLOAD,2023-06-18 22:39:46,15.08847775,0.0001022,53.2187,54.7029,95.9936,264.1172,9.8876e-05,1.287e-05,0.0,0 STARLINK-3990,1 52626U 22052AE  23169.94428723  .00001287  00000-0  98876-4 0  9992,2 52626  53.2187  54.7029 0001022  95.9936 264.1172 15.08847775 61194,6917.857,95.437,540.429,539.015,0.0
52626.0,STARLINK-3990,PAYLOAD,2023-06-19 11:22:51,15.08849874,9.22e-05,53.2181,52.3238,98.5818,261.5278,3.275e-06,-2.36e-06,0.0,0 STARLINK-3990,1 52626U 22052AE  23170.47420683 -.00000236  00000-0  32750-5 0  9993,2 52626  53.2181  52.3238 0000922  98.5818 261.5278 15.08849874 60896,6917.85,95.437,540.353,539.077,0.0
52626.0,STARLINK-3990,PAYLOAD,2023-06-19 17:44:24,15.08831605,9.89e-05,53.2183,51.1347,106.0192,254.0909,0.00023026,3.378e-05,0.0,0 STARLINK-3990,1 52626U 22052AE  23170.73917545  .00003378  00000-0  23026-3 0  9993,2 52626  53.2183  51.1347 0000989 106.0192 254.0909 15.08831605 60935,6917.906,95.438,540.455,539.087,0.0
52626.0,STARLINK-3990,PAYLOAD,2023-06-20 01:41:19,15.08843593,9.14e-05,53.2187,49.647,117.5652,242.5433,0.00026327,3.905e-05,0.0,0 STARLINK-3990,1 52626U 22052AE  23171.07036855  .00003905  00000-0  26327-3 0  9990,2 52626  53.2187  49.6470 0000914 117.5652 242.5433 15.08843593 61365,6917.869,95.437,540.367,539.102,0.0
52626.0,STARLINK-3990,PAYLOAD,2023-06-20 11:13:39,15.08836463,0.0001118,53.2177,47.8612,110.9489,249.1623,0.0001651,2.34e-05,0.0,0 STARLINK-3990,1 52626U 22052AE  23171.46781684  .00002340  00000-0  16510-3 0  9995,2 52626  53.2177  47.8612 0001118 110.9489 249.1623 15.08836463 61041,6917.891,95.438,540.53,538.983,0.0
52626.0,STARLINK-3990,PAYLOAD,2023-06-20 20:45:58,15.08842883,8.57e-05,53.2184,46.0806,93.9602,266.1488,4.4337e-05,4.18e-06,0.0,0 STARLINK-3990,1 52626U 22052AE  23171.86525484  .00000418  00000-0  44337-4 0  9996,2 52626  53.2184  46.0806 0000857  93.9602 266.1488 15.08842883 61109,6917.872,95.437,540.329,539.144,0.0
52626.0,STARLINK-3990,PAYLOAD,2023-06-20 22:21:20,15.08846837,8.85e-05,53.2181,45.7825,98.1158,261.9935,3.9404e-05,3.4e-06,0.0,0 STARLINK-3990,1 52626U 22052AE  23171.93149201  .00000340  00000-0  39404-4 0  9996,2 52626  53.2181  45.7825 0000885  98.1158 261.9935 15.08846837 61492,6917.859,95.437,540.337,539.112,0.0
52626.0,STARLINK-3990,PAYLOAD,2023-06-21 19:01:22,15.08837389,9.42e-05,53.2181,41.9177,82.9346,277.1753,4.4118e-05,4.14e-06,0.0,0 STARLINK-3990,1 52626U 22052AE  23172.79261813  .00000414  00000-0  44118-4 0  9995,2 52626  53.2181  41.9177 0000942  82.9346 277.1753 15.08837389 61246,6917.888,95.438,540.405,539.102,0.0
52626.0,STARLINK-3990,PAYLOAD,2023-06-22 01:22:54,15.08845358,9.62e-05,53.2179,40.7274,92.8513,267.259,3.7304e-05,3.06e-06,0.0,0 STARLINK-3990,1 52626U 22052AE  23173.05757252  .00000306  00000-0  37304-4 0  9991,2 52626  53.2179  40.7274 0000962  92.8513 267.2590 15.08845358 61666,6917.864,95.437,540.395,539.064,0.0
